{
    "links": {
        "self": "http://www.neowsapp.com/rest/v1/neo/3478253?api_key=iIulBulltgU6a56xZRHN4H3l9WmuAYTsLGpBGhQ2"
    },
    "id": "3478253",
    "neo_reference_id": "3478253",
    "name": "(2009 WU25)",
    "designation": "2009 WU25",
    "nasa_jpl_url": "http://ssd.jpl.nasa.gov/sbdb.cgi?sstr=3478253",
    "absolute_magnitude_h": 25.0,
    "estimated_diameter": {
        "kilometers": {
            "estimated_diameter_min": 0.02658,
            "estimated_diameter_max": 0.0594346868
        },
        "meters": {
            "estimated_diameter_min": 26.58,
            "estimated_diameter_max": 59.4346868419
        },
        "miles": {
            "estimated_diameter_min": 0.0165160412,
            "estimated_diameter_max": 0.0369309908
        },
        "feet": {
            "estimated_diameter_min": 87.2047272,
            "estimated_diameter_max": 194.9956979785
        }
    },
    "is_potentially_hazardous_asteroid": false,
    "close_approach_data": [
        {
            "close_approach_date": "2009-11-15",
            "close_approach_date_full": "2009-Nov-15 19:25",
            "epoch_date_close_approach": 1258313100000,
            "relative_velocity": {
                "kilometers_per_second": "9.6711906475",
                "kilometers_per_hour": "34816.2863309438",
                "miles_per_hour": "21633.4863593578"
            },
            "miss_distance": {
                "astronomical": "0.0124538434",
                "lunar": "4.8445450826",
                "kilometers": "1863068.445953558",
                "miles": "1157657.0510447804"
            },
            "orbiting_body": "Earth"
        }
    ],
    "orbital_data": {
        "orbit_id": "6",
        "orbit_determination_date": "2017-04-06 08:59:01",
        "first_observation_date": "2009-11-21",
        "last_observation_date": "2009-11-22",
        "data_arc_in_days": 1,
        "observations_used": 41,
        "orbit_uncertainty": "8",
        "minimum_orbit_intersection": ".0108385",
        "jupiter_tisserand_invariant": "3.235",
        "epoch_osculation": "2455157.5",
        "eccentricity": ".6014179090728355",
        "semi_major_axis": "2.419588005456717",
        "inclination": "5.407510160007707",
        "ascending_node_longitude": "60.78680234023423",
        "orbital_period": "1374.708320475866",
        "perihelion_distance": ".9644044463972256",
        "perihelion_argument": "331.1988359402529",
        "aphelion_distance": "3.874771564516208",
        "perihelion_time": "2455134.556993737356",
        "mean_anomaly": "6.008170701762216",
        "mean_motion": ".2618737332406508",
        "equinox": "J2000",
        "orbit_class": {
            "orbit_class_type": "APO",
            "orbit_class_description": "Near-Earth asteroid orbits which cross the Earth’s orbit similar to that of 1862 Apollo",
            "orbit_class_range": "a (semi-major axis) > 1.0 AU; q (perihelion) < 1.017 AU"
        }
    },
    "is_sentry_object": false
}